GLOBALSTAR M075         
1 37192U 10054E   24145.53156015 -.00000081  00000+0  12969-3 0  9993
2 37192  51.9954 284.9074 0000844 118.2602 316.6192 12.62274592627291
GLOBALSTAR M073         
1 37193U 10054F   24145.45866014 -.00000059  00000+0  24799-3 0  9991
2 37193  52.0043 198.6535 0000316 171.6172 290.6881 12.62265712628791
GLOBALSTAR M083         
1 37739U 11033A   24145.48461156 -.00000105  00000+0 -83269-5 0  9998
2 37739  51.9834 147.8343 0000361  74.2971  87.4042 12.62270253598121
GLOBALSTAR M088         
1 37740U 11033B   24145.22134439 -.00000089  00000+0  84156-4 0  9998
2 37740  51.9751  54.4529 0000820  74.8801  90.3083 12.62268389593566
GLOBALSTAR M091         
1 37741U 11033C   24144.81963703 -.00000079  00000+0  13908-3 0  9992
2 37741  52.0022  18.5381 0001125  85.7697 352.0545 12.62262962594013
GLOBALSTAR M085         
1 37742U 11033D   24144.81212451 -.00000089  00000+0  84367-4 0  9999
2 37742  51.9883 329.9437 0001116 100.1489   4.4107 12.62271296594527
GLOBALSTAR M081         
1 37743U 11033E   24145.01155531 -.00000080  00000+0  13100-3 0  9995
2 37743  51.9973 331.8839 0001077 111.1717  59.4371 12.62265193595071
GLOBALSTAR M089         
1 37744U 11033F   24144.89356968 -.00000089  00000+0  83728-4 0  9991
2 37744  51.9937 286.5462 0000564 143.6452  29.2629 12.62264022595527
